GOES-16
1 41866U 16071A   25358.14983838 -.00000070  00000-0  00000+0 0  9994
2 41866   0.0747 102.0744 0003141 164.3527 135.7799  1.00271818 33342
FENGYUN-4A
1 41882U 16077A   25357.99970521 -.00000337  00000-0  00000+0 0  9991
2 41882   1.8756  82.2934 0004702 142.1473 351.8744  1.00260616 33173
FOX-1B (AO-91)
1 43017U 17073E   25358.11685611  .00011859  00000-0  55728-3 0  9999
2 43017  97.4934 224.0560 0159502 211.1141 148.0570 15.09092268438951
CANX-2
1 32790U 08021H   25357.87925281  .00005886  00000-0  43160-3 0  9990
2 32790  97.8451 329.6706 0009437 278.2814  81.7341 15.03870483958448
AIST-2 (RS-43)
1 39133U 13015D   25358.18224399  .00008341  00000-0  34971-3 0  9993
2 39133  64.8702 108.5937 0028257 255.7219 104.0772 15.23755123697216
NANOSATC-BR1
1 40024U 14033Q   25358.01271891  .00016306  00000-0  65632-3 0  9994
2 40024  98.0892  10.5651 0005775  77.0665 283.1216 15.24960596627220
QB50P1
1 40025U 14033R   25357.98342735  .00009505  00000-0  51703-3 0  9993
2 40025  98.0978 352.2929 0011238 101.5174 258.7319 15.14652295626470
QB50P2
1 40032U 14033Y   25357.93144256  .00008329  00000-0  48861-3 0  9998
2 40032  98.0652 339.4071 0009648  58.8492 301.3682 15.11995102626158
PERSEUS-M2
1 40037U 14033AD  25358.19361899  .00003319  00000-0  31062-3 0  9995
2 40037  97.9775 300.4906 0012603 152.6057 207.5830 14.94740793624634
PERSEUS-M1
1 40039U 14033AF  25358.11073659  .00002474  00000-0  23259-3 0  9993
2 40039  97.9478 294.6660 0012362 151.5469 208.6428 14.94801494624477
POLYITAN-1
1 40042U 14033AJ  25357.96266042  .00019135  00000-0  74488-3 0  9991
2 40042  98.1076   3.4744 0009904  47.5225 312.6847 15.26011813626803
TIGRISAT
1 40043U 14033AK  25357.96070279  .00002814  00000-0  33601-3 0  9995
2 40043  97.7571 147.3607 0048993 289.9829  69.6113 14.84175706619620
UKUBE-1
1 40074U 14037F   25357.91990264  .00010200  00000-0  63286-3 0  9993
2 40074  98.4153 338.3398 0003099  58.6853 301.4676 15.09942400622078
DEORBITSAIL
1 40719U 15032E   25358.12996177  .00009432  00000-0  74959-3 0  9992
2 40719  97.6115 213.3908 0012437  97.5385 262.7253 15.00598524564968
HORYU-IV
1 41340U 16012D   25358.00841376  .00048174  00000-0  77706-3 0  9998
2 41340  30.9928 232.5522 0006696 344.6881  15.3565 15.51603687543309
D-SAT
1 42794U 17036AF  25357.88354113  .00010366  00000-0  52366-3 0  9999
2 42794  97.5381 332.8476 0088626  49.2806 311.6079 15.13824919464300
CORVUS-BC2
1 42846U 17042X   25358.00926166  .00004980  00000-0  35622-3 0  9993
2 42846  97.3853 161.5420 0013480 355.9575   4.1541 15.04806387460709
CORVUS-BC1
1 42847U 17042Y   25358.02805804  .00004015  00000-0  28638-3 0  9999
2 42847  97.3875 162.2486 0011726 333.0186  27.0430 15.05042897460733
APRIZESAT-5 
1 37792U 11044E   25358.07143866  .00001092  00000-0  14669-3 0  9997
2 37792  98.2371 281.3150 0051966 205.2846 154.5820 14.80600636772874
APRIZESAT-6
1 37793U 11044F   25357.33046016  .00000967  00000-0  14468-3 0  9992
2 37793  98.2461 259.1793 0042170 289.3055 192.8987 14.76558765771196
APRIZESAT-7
1 39416U 13066A   25351.58791045  .00001184  00000-0  12412-3 0  9991
2 39416  97.7478 302.7623 0037880  93.0669 267.4884 14.90916766654169
APRIZESAT-8
1 39425U 13066K   25358.10150743  .00001104  00000-0  12657-3 0  9993
2 39425  97.8021 303.2997 0047292 140.5466 219.9209 14.87139169653640
BUGSAT-1 (TITA)
1 40014U 14033E   25358.22638983  .00007415  00000-0  41451-3 0  9999
2 40014  98.0552  75.7722 0030312  58.9525 301.4675 15.13421691629357
SAUDISAT-4
1 40016U 14033G   25358.00762557  .00000851  00000-0  11983-3 0  9996
2 40016  97.7306 145.5195 0043732 284.0435  75.5918 14.79189463620173
TABLETSAT-AURORA
1 40017U 14033H   25358.15181542  .00006437  00000-0  35053-3 0  9992
2 40017  98.0478  57.0578 0013527  93.9187 266.3590 15.14734555628688
APRIZESAT-9
1 40018U 14033J   25357.94146999  .00000648  00000-0  10303-3 0  9995
2 40018  97.8799 130.7466 0067436  44.5837 316.0768 14.73903398617741
APRIZESAT-10
1 40019U 14033K   25357.87458771  .00000745  00000-0  12457-3 0  9992
2 40019  97.9414 124.0502 0080406 113.3189 247.6505 14.70615365616480
AISAT
1 40054U 14034B   25357.65778285  .00012049  00000-0  86407-3 0  9999
2 40054  98.2512 252.7218 0011526  88.4683 271.7861 15.04464669620770
COSMOS-2407 [+]
1 28380U 04028A   25358.02720800  .00000057  00000-0  42994-4 0  9991
2 28380  82.9595 204.5353 0039800  24.0100 129.3509 13.76314935 75788
COSMOS-2414 [+]
1 28521U 05002A   25357.48920671  .00000062  00000-0  38344-4 0  9998
2 28521  82.9488 176.5312 0041383 109.8571 250.7060 13.87904329 59442
COSMOS-2463 [+]
1 36519U 10017A   25358.12160147  .00000040  00000-0  28275-4 0  9990
2 36519  82.9603  18.3480 0034790 255.2965 168.5024 13.71650101783936
NOAA-15
1 25338U 98030A   25358.04744154  .00000139  00000-0  74441-4 0  9990
2 25338  98.5211  18.2936 0011027 136.5429 223.6622 14.27075377436312
NOAA-18
1 28654U 05018A   25358.16548877  .00000149  00000-0  10236-3 0  9997
2 28654  98.8282  75.2817 0013246 289.4674  70.5067 14.13686478 61583
NOAA-19
1 33591U 09005A   25358.13346376  .00000053  00000-0  52382-4 0  9993
2 33591  98.9752  63.7213 0014148 162.0337 198.1338 14.13438645869752
SARAL
1 39086U 13009A   25358.11075510  .00000119  00000-0  59632-4 0  9992
2 39086  98.5503 181.8927 0002962  87.3964 272.7559 14.32760818670538
LAPAN-A3
1 41603U 16040E   25358.19353484  .00004739  00000-0  15739-3 0  9996
2 41603  97.1432 355.3333 0008701 286.3924  73.6362 15.31642313528019
BIROS
1 41604U 16040F   25358.04246301  .00216442  19808-4  58835-3 0  9990
2 41604  97.0659  29.9644 0003827 126.5060 233.6569 15.94180536530528
METOP-A
1 29499U 06044A   25358.17449174  .00002423  00000-0  28840-3 0  9993
2 29499  98.3292  94.5962 0175101 267.1581 153.0429 14.75070824999647
METEOR M1
1 35865U 09049A   25357.86981307  .00000106  00000-0  66544-4 0  9999
2 35865  98.7152 316.8468 0003305  93.6380 266.5176 14.23099751844311
METOP-B
1 38771U 12049A   25358.12616966  .00000125  00000-0  76969-4 0  9991
2 38771  98.6783  47.8911 0003252 120.3245 239.8255 14.21412569688391
METEOR M2
1 40069U 14037A   25358.22251119  .00000329  00000-0  16979-3 0  9999
2 40069  98.4914 335.3672 0005591 173.7454 186.3795 14.21390958594465
CSSWE
1 38761U 12048D   25358.10383274  .00024591  00000-0  66225-3 0  9996
2 38761  64.6644 322.2342 0085690 223.7720 135.6600 15.34106895 89444
MCUBED-2
1 39469U 13072H   25358.02539330  .00013485  00000-0  58126-3 0  9998
2 39469 120.4943  38.2432 0156931 181.3857 178.6789 15.12598516 91274
IPEX
1 39471U 13072K   25357.50186843  .00006854  00000-0  36330-3 0  9995
2 39471 120.4709 352.7218 0177031 168.6899 191.8216 15.04356321 88760
FOX-1A (AO-85)
1 40967U 15058D   25357.75103756  .00004078  00000-0  37365-3 0  9997
2 40967  64.7761 103.6960 0133756 125.7491 235.6147 14.89747896 87420
OOREOS
1 37224U 10062C   25357.48318585  .00002935  00000-0  28951-3 0  9998
2 37224  71.9710 118.0655 0013731  34.0659 326.1389 14.92733289 90417
STARS (KUKAI)
1 33498U 09002G   25358.06084047  .00004987  00000-0  47303-3 0  9998
2 33498  98.1400 293.6306 0009899  36.3960 323.7930 14.94006130912313
YUBELEINY-2 (RS-40)
1 38735U 12041C   25358.16006059  .00000020  00000-0  70726-4 0  9992
2 38735  82.4748 183.8193 0018004  89.5621 270.7521 12.42641219608109
AIST-1
1 39492U 13078C   25358.22553124  .00002616  00000-0  23390-3 0  9998
2 39492  82.4163  80.3012 0018040 140.5815 219.6723 14.95394230649092
VELOX-1
1 40057U 14034E   25358.19383284  .00008262  00000-0  74651-3 0  9993
2 40057  98.2699 248.3782 0008917 119.9025 240.3081 14.95723079620426
DX1
1 40071U 14037C   25358.17998774  .00002475  00000-0  26822-3 0  9993
2 40071  98.3661 304.6058 0008327 115.8649 244.3426 14.89191623620059
COSMOS-2491 (RS-46) [i]
1 39497U 13076E   25358.18272848  .00000036  00000-0  18732-3 0  9995
2 39497  82.4861 277.3775 0013785 109.8546 250.4021 12.43493310543509
COSMOS-2499 (RS-47) [i]
1 39765U 14028E   25358.19630774  .00000027  00000-0  55300-4 0  9991
2 39765  82.4501  10.5182 0232509  52.6695 309.5346 12.82898816542580
TRANSIT 5B-5
1   965U 64083D   25358.12898323  .00000047  00000-0  51938-4 0  9991
2   965  90.0665 201.6792 0043327  70.7466  43.3496 13.56992490 19876
EUTELSAT 1-F4 (ECS 4)
1 18351U 87078B   25357.54374381  .00000027  00000-0  00000+0 0  9993
2 18351  13.9538 343.3533 0009033  14.7791 162.5214  0.98687588125027
BISONSAT
1 40968U 15058E   25357.96315897  .00005222  00000-0  43326-3 0  9998
2 40968  64.7762  86.9611 0122048 123.6780 237.6044 14.94202090 90462
DTUSAT-2
1 40030U 14033W   25351.70002679  .00007073  00000-0  41774-3 0  9998
2 40030  98.0754 333.4459 0009697 125.2587 234.9550 15.11812878625232
ELEKTRO-L2
1 41105U 15074A   25357.97231836 -.00000098  00000-0  00000+0 0  9996
2 41105   6.2522  72.6944 0003526 208.9668 146.6578  1.00272190 36746
DOVE-3
1 39429U 13066P   25358.15524117  .00004586  00000-0  61917-3 0  9992
2 39429  97.6821 221.8309 0114809 231.9947 127.0853 14.75036919645191
FORTE
1 24920U 97047A   25358.10651920  .00000198  00000-0  10296-3 0  9990
2 24920  69.9539  49.4521 0020989 165.3289 194.8447 14.27845989473690
DMSP 5D-2 F15/USA-147
1 25991U 99067A   25358.10319882  .00000136  00000-0  89694-4 0  9992
2 25991  99.0198  29.2779 0010644 137.4245 285.2288 14.17480569345845
CASSIOPE-1
1 39265U 13055A   25358.15261072  .00040213 -17813-6  53437-3 0  9998
2 39265  80.9201 277.3250 0337127 287.5778  68.8886 15.12401515641099
D-STAR ONE PHOENIX
1 43188U 18014J   25357.72193884  .00006151  00000-0  33760-3 0  9997
2 43188  97.5503 258.8814 0007266 261.9211  98.1197 15.14486470432187
S-NET D
1 43186U 18014G   25357.19370708  .00006552  00000-0  35954-3 0  9990
2 43186  97.5489 258.1982 0006742 269.9501  90.0958 15.14473231432104
TEN-KOH
1 43677U 18084G   25358.03798235  .00003116  00000-0  24340-3 0  9995
2 43677  98.0752 178.1169 0008574 354.1903   5.9219 15.01884741389861
